{"features":[{"type":"Feature","properties":{"dealer_name":"Alpine  Country Rentals Ltd.","city":"Valemount","address":"1140 Main Street","province":"BC","postal_code":"V0E 2Z0","phone":"2505669774"},"geometry":{"coordinates":[-119.26365,52.836464],"type":"Point"},"id":"9e6bf3b5bc157303f225dd4fada29640"},{"type":"Feature","properties":{"dealer_name":"A-One Safety and Industrial Supplies Ltd","city":"Duncan","address":"#4 - 5845 Trans-Canada Highway","province":"BC","postal_code":"V9L 3R9","phone":"2507484232"},"geometry":{"coordinates":[-123.7086,48.773207],"type":"Point"},"id":"d0cfe912a56f89ad5277c0a0563446d3"},{"type":"Feature","properties":{"dealer_name":"Arrow Equipment Ltd.","city":"North Vancouver","address":"1132 West 15th Street","province":"BC","postal_code":"V7P 1M9","phone":"6049879926"},"geometry":{"coordinates":[-123.10506,49.32248],"type":"Point"},"id":"7c99c2cce06cff34b7558b8a84ed3741"},{"type":"Feature","properties":{"dealer_name":"B & F Sales and Service Ltd.","city":"Grand Forks","address":"7466 2nd Street","province":"BC","postal_code":"V0H 1H0","phone":"2504423555"},"geometry":{"coordinates":[-118.4569,49.0272],"type":"Point"},"id":"c9437bb3ac2291f2cda1b94ba0f5f472"},{"type":"Feature","properties":{"dealer_name":"Barrier Auto Parts","city":"Barrier","address":"581 Barkley Road","province":"BC","postal_code":"V0E 1E0","phone":"2506729422"},"geometry":{"coordinates":[-119.495805,49.822304],"type":"Point"},"id":"5a2bd251661ef1f8811e4d6d569bd805"},{"type":"Feature","properties":{"dealer_name":"C and L Supply Ltd.","city":"Campbell River","address":"1451 Dogwwod Street","province":"BC","postal_code":"V9W 3A5","phone":"2502879231"},"geometry":{"coordinates":[-125.24499,50.03038],"type":"Point"},"id":"df68825760745caa366aa8aad305068b"},{"type":"Feature","properties":{"dealer_name":"Canyon Cable Ltd.","city":"Hope","address":"930 6th Ave","province":"BC","postal_code":"V0X 1L4","phone":"6048699036"},"geometry":{"coordinates":[-121.43372,49.379877],"type":"Point"},"id":"a56bd5e9d097b82c92bbf0ceb148f6ed"},{"type":"Feature","properties":{"dealer_name":"Cascade Supply and Marine Ltd.","city":"Chilliwack","address":"46108 Airport Road","province":"BC","postal_code":"V2P 1A5","phone":"6047921381"},"geometry":{"coordinates":[-121.94845,49.15434],"type":"Point"},"id":"b0876f2d69187179916b72c43e26a2e8"},{"type":"Feature","properties":{"dealer_name":"Charles Repair and Service","city":"Prince Albert","address":"140 8th Street East","province":"SK","postal_code":"S6V 0V7","phone":"3067644375"},"geometry":{"coordinates":[-105.75066,53.2054],"type":"Point"},"id":"d50b7216c6ee3de44f6eb42fe5dec69f"},{"type":"Feature","properties":{"dealer_name":"Christian Valley Service","city":"Rock Creek","address":"Box 70","province":"BC","postal_code":"V0H 1Y0","phone":"2504462788"},"geometry":{"coordinates":[-119.00096,49.05229],"type":"Point"},"id":"f71290f68d73b812da36dc1eec2a5cc7"},{"type":"Feature","properties":{"dealer_name":"Coastline Powersports Inc.","city":"Sechelt","address":"#101 - 1870 Cosyan Place","province":"BC","postal_code":"V0N 3A1","phone":"6048854616"},"geometry":{"coordinates":[-123.71133,49.449828],"type":"Point"},"id":"0f519545cc8a3832087b8da7ced65741"},{"type":"Feature","properties":{"dealer_name":"Columbia Fire and Safety Ltd.","city":"Victoria","address":"#1 - 410 Garbally Road","province":"BC","postal_code":"V8T 2K1","phone":"2503866773"},"geometry":{"coordinates":[-123.37635,48.440486],"type":"Point"},"id":"92fe0c3354823236afe64849ad49d2b0"},{"type":"Feature","properties":{"dealer_name":"Comfort Welding Ltd.","city":"Creston","address":"120 Collis Street","province":"BC","postal_code":"V0B 1G0","phone":"2504287464"},"geometry":{"coordinates":[-116.52605,49.117369],"type":"Point"},"id":"d55b75dd213d716e67135a4aa60774a1"},{"type":"Feature","properties":{"dealer_name":"Elko Enterprises","city":"Elko","address":"5385 HWY 3","province":"BC","postal_code":"V0B 1T3","phone":"2505297445"},"geometry":{"coordinates":[-115.2395795,49.3720725],"type":"Point"},"id":"882fee4e5107002bf9d44ae801ccdfb0"},{"type":"Feature","properties":{"dealer_name":"Enderby Rentals Ltd.","city":"Enderby","address":"601 Hubert Ave","province":"BC","postal_code":"V0E 1B0","phone":"2508387328"},"geometry":{"coordinates":[-119.14072,50.548287],"type":"Point"},"id":"895ad438c01f92f9bc1b0d32efa91641"},{"type":"Feature","properties":{"dealer_name":"Evergreen Industrial Supplies","city":"Smithers","address":"2924A Highway 16 East","province":"BC","postal_code":"V0J 2N0","phone":"2508474456"},"geometry":{"coordinates":[-127.14415,54.772886],"type":"Point"},"id":"bd99d4095c9516a0b92afdca994e5c80"},{"type":"Feature","properties":{"dealer_name":"Exeter Forest And Marine","city":"100 Mile House","address":"130 Horse Lake Road","province":"BC","postal_code":"V0K 2E0","phone":"2503954441"},"geometry":{"coordinates":[-121.29706,51.638276],"type":"Point"},"id":"996ee44c9d85e66b7e9798a461f88ac2"},{"type":"Feature","properties":{"dealer_name":"Ferguson Equipment Ltd.","city":"Kamloops","address":"852 Seymour Street","province":"BC","postal_code":"V2C 2H5","phone":"2503723579"},"geometry":{"coordinates":[-120.31987,50.675088],"type":"Point"},"id":"2104211d3a2e421a4847e75c693f9851"},{"type":"Feature","properties":{"dealer_name":"Fitz's Walker Power Equip. Ltd.","city":"Victoria","address":"1107 Goldstream Ave","province":"BC","postal_code":"V9B 2Y9","phone":"2505905855"},"geometry":{"coordinates":[-123.51897,48.449305],"type":"Point"},"id":"c26f30d80f3bc4d08d7a92c0cb1a5b88"},{"type":"Feature","properties":{"dealer_name":"Fleetwest Enterprises Ltd","city":"Clearwater","address":"126 Station Road","province":"BC","postal_code":"V0E 1N0","phone":"2506743116"},"geometry":{"coordinates":[-120.0331,51.63319],"type":"Point"},"id":"2dadaa0bcf21d10ac9f63c50c4fd9b43"},{"type":"Feature","properties":{"dealer_name":"Fraser Valley Equipment Ltd.","city":"Surrey","address":"13399 72nd Ave","province":"BC","postal_code":"V3W 2N5","phone":"6045901433"},"geometry":{"coordinates":[-122.85149,49.13381],"type":"Point"},"id":"ec8bfddcfd4ed3ab528437a956766eb6"},{"type":"Feature","properties":{"dealer_name":"Gibson Home Hardware","city":"Gibson","address":"921 Gibson Way","province":"BC","postal_code":"V0N 1V0","phone":"6048862442"},"geometry":{"coordinates":[-123.509074,49.399669],"type":"Point"},"id":"9f0145079818594ba0d11915d2af4aaa"},{"type":"Feature","properties":{"dealer_name":"Gold River Auto Parts Ltd.","city":"Gold River","address":"512 Industrial Park Place","province":"BC","postal_code":"V0P 1G0","phone":"2502832611"},"geometry":{"coordinates":[-126.05463,49.771983],"type":"Point"},"id":"9d8a1c3bba95a1216ce3166fc4d07bf5"},{"type":"Feature","properties":{"dealer_name":"Golden Installations Ltd.","city":"Golden","address":"915 11th Ave South","province":"BC","postal_code":"V0A 1H0","phone":"2503445566"},"geometry":{"coordinates":[-116.961465,51.292742],"type":"Point"},"id":"e6656354648bcf82bd6f8e25d7a99c1a"},{"type":"Feature","properties":{"dealer_name":"Gray Creek Store","city":"Gray Creek","address":"1979 Chainsaw Avenue","province":"BC","postal_code":"V0B 1S0","phone":"2502279315"},"geometry":{"coordinates":[-116.77444,49.621622],"type":"Point"},"id":"8088e1c37289f883ad973436cf3913c9"},{"type":"Feature","properties":{"dealer_name":"Guillevin Intern.Co.(CAMP.RIVER)","city":"Campbell River","address":"1690K Maple Street","province":"BC","postal_code":"V9W 3G2","phone":"2502872186"},"geometry":{"coordinates":[-125.26459,50.031046],"type":"Point"},"id":"16a471ebf597a9f2835c29be3c3bdb9e"},{"type":"Feature","properties":{"dealer_name":"Guillevin International (PG)","city":"Prince George","address":"2233 Quinn Street","province":"BC","postal_code":"V2N 2X4","phone":"2509604350"},"geometry":{"coordinates":[-122.79209,53.902613],"type":"Point"},"id":"7103440e2a6da9c8857f17d9c36cea05"},{"type":"Feature","properties":{"dealer_name":"Hayes Safety Training","city":"Okotokes","address":"Box 491","province":"AB","postal_code":"T1S1Z9","phone":"4036030952"},"geometry":{"coordinates":[-113.9981,50.71925],"type":"Point"},"id":"5d5d05245ac93edadab34b33c4e43577"},{"type":"Feature","properties":{"dealer_name":"Highway Service Sales Rentals","city":"Duncan","address":"#100 - 2935 Sprott Road","province":"BC","postal_code":"V9L 6B5","phone":"2507467404"},"geometry":{"coordinates":[-123.71657,48.823848],"type":"Point"},"id":"e6dc9050f9a28a0c0b63aaaca6e3c524"},{"type":"Feature","properties":{"dealer_name":"Howe Sound Equipment","city":"Squamish","address":"40330 Government Road","province":"BC","postal_code":"V8B 0A5","phone":"6048985212"},"geometry":{"coordinates":[-123.13668,49.739965],"type":"Point"},"id":"fec1283fb344a5572060c6534e750b81"},{"type":"Feature","properties":{"dealer_name":"Industrial Reproductions Ltd.","city":"Prince George","address":"610 Richard Road","province":"BC","postal_code":"V2K 4L3","phone":"2505622185"},"geometry":{"coordinates":[-122.77688,53.929813],"type":"Point"},"id":"10274fefa597bc1b691792b2b498f331"},{"type":"Feature","properties":{"dealer_name":"Kootenay Industrial Sup (Nelson)","city":"Nelson","address":"323 Vernon Street","province":"BC","postal_code":"V1L 4E3","phone":"2503525301"},"geometry":{"coordinates":[-117.29652,49.492209],"type":"Point"},"id":"5942bb51c564179cea0d7a7cf7811b98"},{"type":"Feature","properties":{"dealer_name":"Kootenay Industrial Sup. (Castle)","city":"Castlegar","address":"2181 Columbia Ave","province":"BC","postal_code":"V1N 2W9","phone":"2503042900"},"geometry":{"coordinates":[-117.65077,49.291963],"type":"Point"},"id":"0b85cccdd2bff79c97b9ceed3d2a78ac"},{"type":"Feature","properties":{"dealer_name":"Kootenay Truck and Saw","city":"Cranbrook","address":"#2 - 708 Industrial Road","province":"BC","postal_code":"V1C 4C8","phone":"2504266421"},"geometry":{"coordinates":[-115.76473,49.521005],"type":"Point"},"id":"41efa31a719612cbf5b77fbfe3050fca"},{"type":"Feature","properties":{"dealer_name":"L.B. Woodchoppers","city":"Port Alberni","address":"3509 3rd Ave","province":"BC","postal_code":"V9Y 4E6","phone":"2507235841"},"geometry":{"coordinates":[-124.807644,49.236011],"type":"Point"},"id":"cd50921a88ffb79e91a5bcaf62a79758"},{"type":"Feature","properties":{"dealer_name":"Les Koleszar Services Ltd.","city":"Powell River","address":"4426 Willingdon Ave","province":"BC","postal_code":"V8A 2M6","phone":"6044855616"},"geometry":{"coordinates":[-124.5,49.8342],"type":"Point"},"id":"3138a680739fd621dfd8908bcfe4a566"},{"type":"Feature","properties":{"dealer_name":"Mac's Auto Parts","city":"Princeton","address":"193 Vermillion Ave","province":"BC","postal_code":"V0X 1W0","phone":"2502956944"},"geometry":{"coordinates":[-120.508,49.4605],"type":"Point"},"id":"84587754429c411857770b929ca987e4"},{"type":"Feature","properties":{"dealer_name":"Macandale's","city":"Port Hardy","address":"8640 Wollason Street","province":"BC","postal_code":"V0N 2P0","phone":"2509498442"},"geometry":{"coordinates":[-127.49137,50.719553],"type":"Point"},"id":"8eaac44a09617efdde116ed24de8cbe6"},{"type":"Feature","properties":{"dealer_name":"Main Jet 708 Hwy 3A","city":"Nelson","address":"708 Highway 3A","province":"BC","postal_code":"V1L 6M6","phone":"2503523191"},"geometry":{"coordinates":[-117.2843,49.515021],"type":"Point"},"id":"b5df07d28f464c9f79f2270d5a88fb29"},{"type":"Feature","properties":{"dealer_name":"Mark's Workwear #827 (Gibsons)","city":"Gibsons","address":"#15 - 900 Gibsons Way","province":"BC","postal_code":"V0N 1V7","phone":"6048864626"},"geometry":{"coordinates":[-123.51934,49.408116],"type":"Point"},"id":"6bc8e899cd3a8bb32e91a7ca34981d76"},{"type":"Feature","properties":{"dealer_name":"Marvins Small Motor Repair","city":"Nakusp","address":"98 1st Street","province":"BC","postal_code":"V0G 1R0","phone":"2502654911"},"geometry":{"coordinates":[-117.79595,50.239128],"type":"Point"},"id":"b209afb856e038f8729e452234677e6a"},{"type":"Feature","properties":{"dealer_name":"Motion Industries Canada (Nisku)","city":"Nisku","address":"2714 5th Street","province":"BC","postal_code":"T9E 0H1","phone":"7804837775"},"geometry":{"coordinates":[-113.52952,53.361204],"type":"Point"},"id":"615cf7084ee90222fef137056af88990"},{"type":"Feature","properties":{"dealer_name":"Motion Industries Canada (Cranbrook)","city":"Cranbrook","address":"517 C Industrial Road D","province":"BC","postal_code":"V1C 6R8","phone":"2504268060"},"geometry":{"coordinates":[-115.76686,49.528072],"type":"Point"},"id":"0c90274da58011c6d48eeb08e4769c01"},{"type":"Feature","properties":{"dealer_name":"Neiser Sales Service Ltd.","city":"Lake Cowichan","address":"8079 Neiser Road","province":"BC","postal_code":"V0R 2G0","phone":"2507496033"},"geometry":{"coordinates":[-124.04311,48.834204],"type":"Point"},"id":"eb71462601a3bcf3cefde8eb6527a8b7"},{"type":"Feature","properties":{"dealer_name":"NIS Norhern Industrial Sales Ltd.(Chet)","city":"Chetwynd","address":"4831 South Access Road","province":"BC","postal_code":"V0C 1J0","phone":"2507889162"},"geometry":{"coordinates":[-121.62714,55.696543],"type":"Point"},"id":"a356ae53472061e8662ec6b1ed334d7c"},{"type":"Feature","properties":{"dealer_name":"Norther Metalic Fort Nelson","city":"Fort Nelson","address":"4602 49th Ave","province":"BC","postal_code":"V0C 1R0","phone":"2507747423"},"geometry":{"coordinates":[-123.4720646,58.99794079],"type":"Point"},"id":"6880222e3d427af19e7831682afa1b48"},{"type":"Feature","properties":{"dealer_name":"Northern Saw and Pump Center Derek","city":"Dawson Creek","address":"9733 17th Street","province":"BC","postal_code":"V1G 4B1","phone":"2507827294"},"geometry":{"coordinates":[-120.25134,55.76368],"type":"Point"},"id":"38805fdbcfa31212dd9a6b19e0970b10"},{"type":"Feature","properties":{"dealer_name":"ONO Trading Company (Courtenay)","city":"Courtenay","address":"#1 468 29th Street","province":"BC","postal_code":"V9N 7S7","phone":"2507030633"},"geometry":{"coordinates":[-125.00707,49.682888],"type":"Point"},"id":"63576175c0dfd8cfdd887bfeedd1d750"},{"type":"Feature","properties":{"dealer_name":"ONO Trading Company (Nanaimo)","city":"Nanaimo","address":"6481 Portsmouth Road","province":"BC","postal_code":"V9V 1A3","phone":"2503904556"},"geometry":{"coordinates":[-124.04567,49.239374],"type":"Point"},"id":"894172148d303b80ffb392f03443d806"},{"type":"Feature","properties":{"dealer_name":"ONO Trading Company (Surrey)","city":"Surrey","address":"18565 96th Ave","province":"BC","postal_code":"V4N 3P7","phone":"6044550575"},"geometry":{"coordinates":[-122.745731,49.176993],"type":"Point"},"id":"63ba8ec25817cc6ad48f0df925a0c907"},{"type":"Feature","properties":{"dealer_name":"Outdoor Adventures","city":"Burns Lake","address":"121 Francois Lake Drive","province":"BC","postal_code":"V0J 1E0","phone":"2506923777"},"geometry":{"coordinates":[-125.76271,54.224513],"type":"Point"},"id":"6a8674c7a2d3b97d0b9be28c12b6fc4b"},{"type":"Feature","properties":{"dealer_name":"Pender Harbour Diesel Co. Ltd.","city":"Madiera Park","address":"13540 Sunshine Coast Highway","province":"BC","postal_code":"V0N 2H1","phone":"6048832616"},"geometry":{"coordinates":[-123.77,50.2056],"type":"Point"},"id":"42eb19cd74380ba457e64e1d2cf6fccd"},{"type":"Feature","properties":{"dealer_name":"Penticton Honda","city":"Penticton","address":"100 Industrial Ave","province":"BC","postal_code":"V2A 3H8","phone":"2504923808"},"geometry":{"coordinates":[-119.58242,49.480585],"type":"Point"},"id":"7dfb8b2c7541ce41c2e86b306ea516a9"},{"type":"Feature","properties":{"dealer_name":"Pilon Tool Rentals Ltd.","city":"Courtenay","address":"123 Island Island Highway","province":"BC","postal_code":"V9N 3N9","phone":"2503385361"},"geometry":{"coordinates":[-124.99127,49.701646],"type":"Point"},"id":"0eb7b68a0c266c6faa9f1b4ce46d7b07"},{"type":"Feature","properties":{"dealer_name":"Prospect Equipment (2205) Ltd.","city":"Mission","address":"33320 Glasgov Ave","province":"BC","postal_code":"V2V 4N6","phone":"6048268696"},"geometry":{"coordinates":[-122.30019,49.13271],"type":"Point"},"id":"e6e2b9b56329e71051c89a9e81e9dff4"},{"type":"Feature","properties":{"dealer_name":"Raingear Pro","city":"Delta","address":"5288 3A Ave","province":"BC","postal_code":"V4M 1E9","phone":"6049438469"},"geometry":{"coordinates":[-123.07675,49.008968],"type":"Point"},"id":"ac0ef82645f765ef87148f1ecccdb195"},{"type":"Feature","properties":{"dealer_name":"Revitup DBA Bridge River Supply Ltd.","city":"Lillooet","address":"310 Main Street","province":"BC","postal_code":"V0K 1V0","phone":"2502564121"},"geometry":{"coordinates":[-121.924325,50.705229],"type":"Point"},"id":"f4ffc5977f10ff09c95b4d55ace3d94d"},{"type":"Feature","properties":{"dealer_name":"Revy's Repair and Rentals","city":"Revelstoke","address":"801 East 4th Ave","province":"BC","postal_code":"V0E 2S0","phone":"2508373536"},"geometry":{"coordinates":[-118.199032,50.999003],"type":"Point"},"id":"178fef3f028a6b30e5b170db0d936b0a"},{"type":"Feature","properties":{"dealer_name":"Richlock Rentals Ltd.","city":"Sidney","address":"10115 McDonald Park Road","province":"BC","postal_code":"V8L 5X5","phone":"2506569422"},"geometry":{"coordinates":[-123.41641,48.656794],"type":"Point"},"id":"8658c1fbd5834016f2e3c03351d52149"},{"type":"Feature","properties":{"dealer_name":"Rich's Saw Sales","city":"Vanderhoof","address":"290 West 1st Street","province":"BC","postal_code":"V0J 3A0","phone":"2505672362"},"geometry":{"coordinates":[-124.0167,54.0167],"type":"Point"},"id":"3931aadcbe870ebbda71f1c35e13bc22"},{"type":"Feature","properties":{"dealer_name":"Riverside Chainsaw","city":"Maugerville","address":"280 Route 105","province":"NB","postal_code":"E3A 8G2","phone":"5064531322"},"geometry":{"coordinates":[-67.303433,45.196426],"type":"Point"},"id":"8376c6fffdfab91cdb835bd4ce334d5a"},{"type":"Feature","properties":{"dealer_name":"Rocky's Equipment Sales","city":"Queen Charlotte City","address":"805 Oceanview Drive","province":"BC","postal_code":"V0T 1S0","phone":"2505598311"},"geometry":{"coordinates":[-132.09974,53.254949],"type":"Point"},"id":"ab8f12302de8733eef1a81f85d8f44e4"},{"type":"Feature","properties":{"dealer_name":"Rough Country Marine","city":"Revelstoke","address":"210 2nd Street","province":"BC","postal_code":"V0E 2S0","phone":"2508376738"},"geometry":{"coordinates":[-118.19742,50.999131],"type":"Point"},"id":"a79a1fcfb080f384d5ff3613cfbca3b0"},{"type":"Feature","properties":{"dealer_name":"Savoy Equip.  Ltd. (Kelowna)","city":"Kelowna","address":"1929 Windsor Road","province":"BC","postal_code":"V1Y 4R6","phone":"2508681010"},"geometry":{"coordinates":[-119.45313,49.880351],"type":"Point"},"id":"34742545e0e3b3f3a0acbb6b98fba46e"},{"type":"Feature","properties":{"dealer_name":"Savoy Equipment (Vernon)","city":"Vernon","address":"3202 29th Street","province":"BC","postal_code":"V1T 5B1","phone":"2505450627"},"geometry":{"coordinates":[-119.268886,50.2543],"type":"Point"},"id":"a65b0b9094912dabeff91e41332daa92"},{"type":"Feature","properties":{"dealer_name":"Shearwater Marine Ltd. 115-6086 Russ Baker Way","city":"Richmond","address":"#115 - 6086 Russ Baker Way","province":"BC","postal_code":"V7B 1B4","phone":"2509572305"},"geometry":{"coordinates":[-123.15156,49.180977],"type":"Point"},"id":"f453875eff8d52a0d7d533f13f5a2887"},{"type":"Feature","properties":{"dealer_name":"Shoprite Marine","city":"Port McNeil","address":"1664 Campbell Way","province":"BC","postal_code":"V0N 2R0","phone":"2509563385"},"geometry":{"coordinates":[-127.08878,50.588838],"type":"Point"},"id":"1f9e3acd6fdf97fd14b6f73a31b4acb5"},{"type":"Feature","properties":{"dealer_name":"Sidina Sales and Service","city":"New Hazleton","address":"3324 Fielding Road","province":"BC","postal_code":"V0J 1Y0","phone":"2508422337"},"geometry":{"coordinates":[-122.65894,52.987955],"type":"Point"},"id":"95175069717c4a5478f310ecaf501536"},{"type":"Feature","properties":{"dealer_name":"Slickers Raingear Warehouse (PRIN.RUP)","city":"Prince Rupert","address":"906 2nd Ave West","province":"BC","postal_code":"V8J 1H7","phone":"2506244907"},"geometry":{"coordinates":[-130.334346,54.308062],"type":"Point"},"id":"c745f27d49c91712178f485674cdb9ee"},{"type":"Feature","properties":{"dealer_name":"Summit Power Tools Inc.","city":"Prince George","address":"814 5th Ave","province":"BC","postal_code":"V2L 3K6","phone":"2505612222"},"geometry":{"coordinates":[-122.73943,53.913417],"type":"Point"},"id":"7e7dd039d51339d6094c703245c4cbed"},{"type":"Feature","properties":{"dealer_name":"Thunder Bay Saw Shop","city":"Powell River","address":"7125 Duncan Street","province":"BC","postal_code":"V8A 1W3","phone":"6044855041"},"geometry":{"coordinates":[-124.51567,49.836686],"type":"Point"},"id":"cbe33a4c0b1c28848138c2bfccd87b66"},{"type":"Feature","properties":{"dealer_name":"Trailblaz -n- Power","city":"Fort St. John","address":"10516 Alaska Road","province":"BC","postal_code":"V1J 1B3","phone":"2507856675"},"geometry":{"coordinates":[-120.85568,56.240614],"type":"Point"},"id":"8a0f17965c5bfc54f9885d3fde1393cd"},{"type":"Feature","properties":{"dealer_name":"Treen Safety","city":"Burnaby","address":"#207 - 2999 Underhill Ave","province":"BC","postal_code":"V5A 3C2","phone":"6042164491"},"geometry":{"coordinates":[-122.92983,49.258491],"type":"Point"},"id":"43c6e9a4cd0063f8bdbce0cf60ceb6b5"},{"type":"Feature","properties":{"dealer_name":"Triton Auto. and Industrial Ltd.(8010)","city":"Squamish","address":"1003 Industrial Way","province":"BC","postal_code":"V8B 0H1","phone":"6048925951"},"geometry":{"coordinates":[-123.15013,49.717241],"type":"Point"},"id":"25c601ad8ac4b51b5c3dfc0b816ebc01"},{"type":"Feature","properties":{"dealer_name":"Trigos Work wear Kitimat","city":"Kitimat","address":"301 City Center","province":"BC","postal_code":"V8C 1T6","phone":"2506326460"},"geometry":{"coordinates":[-128.65326,54.054235],"type":"Point"},"id":"fb6295b71b7537712a3f5b3d427a12ab"},{"type":"Feature","properties":{"dealer_name":"Trowelex","city":"Castlegar","address":"4450 Columbia Ave","province":"BC","postal_code":"V1N 3N6","phone":"2503653315"},"geometry":{"coordinates":[-117.66136,49.252205],"type":"Point"},"id":"81045496978daabd659c198474b5112f"},{"type":"Feature","properties":{"dealer_name":"TTRC Contracting Ltd.","city":"Whitecourt","address":"3709 38th Ave","province":"AB","postal_code":"T7S 0A2","phone":"7807782770"},"geometry":{"coordinates":[-115.65576,54.126625],"type":"Point"},"id":"ef66d5022cf4aef853e33a6f5cf62553"},{"type":"Feature","properties":{"dealer_name":"Valley Chainsaw and Rec. Ltd.","city":"Pemberton","address":"7446 Prospect Street","province":"BC","postal_code":"V0N 2L0","phone":"6048946442"},"geometry":{"coordinates":[-122.80713,50.32342],"type":"Point"},"id":"c7b2a37dbeb6567edd49689c2695b6e3"},{"type":"Feature","properties":{"dealer_name":"W.L. Forestry Supplies 2015 LTD.","city":"Williams Lake","address":"675 North Mackenzie Ave","province":"BC","postal_code":"V2G 1N9","phone":"2503926699"},"geometry":{"coordinates":[-122.15052,52.13698],"type":"Point"},"id":"7ee802e1fffa4dc6de158905c25347cc"},{"type":"Feature","properties":{"dealer_name":"Walkers Saw Shop","city":"Nanaimo","address":"3653 Shenton Road","province":"BC","postal_code":"V9T 2H1","phone":"2507538309"},"geometry":{"coordinates":[-124.01046,49.204661],"type":"Point"},"id":"0cd10fcf349014aca8b5b09381090e96"},{"type":"Feature","properties":{"dealer_name":"Western Equipment Ltd. (Vic)","city":"Victoria","address":"2003 Government Street","province":"BC","postal_code":"V8T 4N9","phone":"2503863194"},"geometry":{"coordinates":[-123.36688,48.432122],"type":"Point"},"id":"252a360508705807bf4153100484788b"},{"type":"Feature","properties":{"dealer_name":"Willis Harper Hardware","city":"Quesnel","address":"288 Reid Street","province":"BC","postal_code":"V2J 2M2","phone":"2509922135"},"geometry":{"coordinates":[-122.49636,52.977282],"type":"Point"},"id":"c58cea5e44cc07084efe03c249ac6788"},{"type":"Feature","properties":{"dealer_name":"Woodsman Equipment and Rentals Ltd.","city":"Salmon Arm","address":"1050 30th Street SW","province":"BC","postal_code":"V1E 3J9","phone":"2508324045"},"geometry":{"coordinates":[-119.31906,50.692209],"type":"Point"},"id":"78e3b5eab4a243603d85ccdb21eb1499"}],"type":"FeatureCollection"}